{"type": "FeatureCollection", "features": [ {"type": "Feature", "properties": {"norad_id": 39122, "name": "EUTELSAT 117 WEST A", "group": "eutelsat", "lat": 0.029902543861010513, "lon": 79.10427546120225, "alt_km": 35797.510527859675, "timestamp": "2025-12-26T06:43:29.178158+00:00", "meta": {"OBJECT_NAME": "EUTELSAT 117 WEST A", "OBJECT_ID": "2013-012A", "EPOCH": "2025-12-25T15:56:10.682592", "MEAN_MOTION": 1.00270782, "ECCENTRICITY": 0.00027913, "INCLINATION": 0.0176, "RA_OF_ASC_NODE": 324.0634, "ARG_OF_PERICENTER": 314.0111, "MEAN_ANOMALY": 298.594, "EPHEMERIS_TYPE": 0, "CLASSIFICATION_TYPE": "U", "NORAD_CAT_ID": 39122, "ELEMENT_SET_NO": 999, "REV_AT_EPOCH": 4669, "BSTAR": 0, "MEAN_MOTION_DOT": 9e-08, "MEAN_MOTION_DDOT": 0}, "tle": {"line1": "1 39122U 13012A   25359.66401253  .00000009  00000+0  00000+0 0  9992", "line2": "2 39122   0.0176 324.0634 0002791 314.0111 298.5940  1.00270782 46694"}}, "geometry": {"type": "Point", "coordinates": [79.10427546120225, 0.029902543861010513]}}, {"type": "Feature", "properties": {"norad_id": 39163, "name": "EUTELSAT 7B", "group": "eutelsat", "lat": -0.018775075652930344, "lon": -157.16095121874216, "alt_km": 35795.6033455463, "timestamp": "2025-12-26T06:43:29.178174+00:00", "meta": {"OBJECT_NAME": "EUTELSAT 7B", "OBJECT_ID": "2013-022A", "EPOCH": "2025-12-25T13:05:49.496064", "MEAN_MOTION": 1.00271702, "ECCENTRICITY": 0.0004644, "INCLINATION": 0.066, "RA_OF_ASC_NODE": 10.1189, "ARG_OF_PERICENTER": 312.1563, "MEAN_ANOMALY": 335.4778, "EPHEMERIS_TYPE": 0, "CLASSIFICATION_TYPE": "U", "NORAD_CAT_ID": 39163, "ELEMENT_SET_NO": 999, "REV_AT_EPOCH": 4620, "BSTAR": 0, "MEAN_MOTION_DOT": 6.9e-07, "MEAN_MOTION_DDOT": 0}, "tle": {"line1": "1 39163U 13022A   25359.54571176  .00000069  00000+0  00000+0 0  9993", "line2": "2 39163   0.0660  10.1189 0004644 312.1563 335.4778  1.00271702 46204"}}, "geometry": {"type": "Point", "coordinates": [-157.16095121874216, -0.018775075652930344]}}, {"type": "Feature", "properties": {"norad_id": 39612, "name": "EXPRESS-AT1", "group": "eutelsat", "lat": -0.018050577981698478, "lon": -108.08721893158625, "alt_km": 35785.16252126005, "timestamp": "2025-12-26T06:43:29.178187+00:00", "meta": {"OBJECT_NAME": "EXPRESS-AT1", "OBJECT_ID": "2014-010A", "EPOCH": "2025-12-26T00:53:38.609088", "MEAN_MOTION": 1.00277986, "ECCENTRICITY": 0.0001043, "INCLINATION": 0.0126, "RA_OF_ASC_NODE": 298.72, "ARG_OF_PERICENTER": 212.4189, "MEAN_ANOMALY": 13.0636, "EPHEMERIS_TYPE": 0, "CLASSIFICATION_TYPE": "U", "NORAD_CAT_ID": 39612, "ELEMENT_SET_NO": 999, "REV_AT_EPOCH": 4308, "BSTAR": 0, "MEAN_MOTION_DOT": 9.9e-07, "MEAN_MOTION_DDOT": 0}, "tle": {"line1": "1 39612U 14010A   25360.03725242  .00000099  00000+0  00000+0 0  9994", "line2": "2 39612   0.0126 298.7200 0001043 212.4189  13.0636  1.00277986 43089"}}, "geometry": {"type": "Point", "coordinates": [-108.08721893158625, -0.018050577981698478]}}, {"type": "Feature", "properties": {"norad_id": 39613, "name": "EXPRESS-AT2", "group": "eutelsat", "lat": -0.00011053417078517559, "lon": -24.22939389294004, "alt_km": 35782.89873479429, "timestamp": "2025-12-26T06:43:29.178199+00:00", "meta": {"OBJECT_NAME": "EXPRESS-AT2", "OBJECT_ID": "2014-010B", "EPOCH": "2025-12-25T22:17:29.922720", "MEAN_MOTION": 1.00271506, "ECCENTRICITY": 0.0001635, "INCLINATION": 0.0128, "RA_OF_ASC_NODE": 298.6684, "ARG_OF_PERICENTER": 335.5701, "MEAN_ANOMALY": 294.6798, "EPHEMERIS_TYPE": 0, "CLASSIFICATION_TYPE": "U", "NORAD_CAT_ID": 39613, "ELEMENT_SET_NO": 999, "REV_AT_EPOCH": 4276, "BSTAR": 0, "MEAN_MOTION_DOT": -2.59e-06, "MEAN_MOTION_DDOT": 0}, "tle": {"line1": "1 39613U 14010B   25359.92881855 -.00000259  00000+0  00000+0 0  9993", "line2": "2 39613   0.0128 298.6684 0001635 335.5701 294.6798  1.00271506 42763"}}, "geometry": {"type": "Point", "coordinates": [-24.22939389294004, -0.00011053417078517559]}}, {"type": "Feature", "properties": {"norad_id": 39773, "name": "EUTELSAT 3B", "group": "eutelsat", "lat": -0.03188694923613023, "lon": -161.04104518202612, "alt_km": 35771.995728172944, "timestamp": "2025-12-26T06:43:29.178211+00:00", "meta": {"OBJECT_NAME": "EUTELSAT 3B", "OBJECT_ID": "2014-030A", "EPOCH": "2025-12-25T19:55:47.736768", "MEAN_MOTION": 1.00270268, "ECCENTRICITY": 0.00042727, "INCLINATION": 0.0603, "RA_OF_ASC_NODE": 351.1895, "ARG_OF_PERICENTER": 244.0323, "MEAN_ANOMALY": 161.4098, "EPHEMERIS_TYPE": 0, "CLASSIFICATION_TYPE": "U", "NORAD_CAT_ID": 39773, "ELEMENT_SET_NO": 999, "REV_AT_EPOCH": 4232, "BSTAR": 0, "MEAN_MOTION_DOT": 4.1e-07, "MEAN_MOTION_DDOT": 0}, "tle": {"line1": "1 39773U 14030A   25359.83041362  .00000041  00000+0  00000+0 0  9991", "line2": "2 39773   0.0603 351.1895 0004272 244.0323 161.4098  1.00270268 42321"}}, "geometry": {"type": "Point", "coordinates": [-161.04104518202612, -0.03188694923613023]}}, {"type": "Feature", "properties": {"norad_id": 40425, "name": "EUTELSAT 115 WEST B", "group": "eutelsat", "lat": -0.022804467461663737, "lon": 80.98281018514885, "alt_km": 35785.960087888576, "timestamp": "2025-12-26T06:43:29.178223+00:00", "meta": {"OBJECT_NAME": "EUTELSAT 115 WEST B", "OBJECT_ID": "2015-010B", "EPOCH": "2025-12-24T09:59:58.343136", "MEAN_MOTION": 1.00271259, "ECCENTRICITY": 1.435e-05, "INCLINATION": 0.0435, "RA_OF_ASC_NODE": 188.915, "ARG_OF_PERICENTER": 182.2118, "MEAN_ANOMALY": 117.1483, "EPHEMERIS_TYPE": 0, "CLASSIFICATION_TYPE": "U", "NORAD_CAT_ID": 40425, "ELEMENT_SET_NO": 999, "REV_AT_EPOCH": 3964, "BSTAR": 0, "MEAN_MOTION_DOT": -4e-08, "MEAN_MOTION_DDOT": 0}, "tle": {"line1": "1 40425U 15010B   25358.41664749 -.00000004  00000+0  00000+0 0  9999", "line2": "2 40425   0.0435 188.9150 0000143 182.2118 117.1483  1.00271259 39646"}}, "geometry": {"type": "Point", "coordinates": [80.98281018514885, -0.022804467461663737]}}, {"type": "Feature", "properties": {"norad_id": 40875, "name": "EUTELSAT 8 WEST B", "group": "eutelsat", "lat": 0.002370587777800962, "lon": -172.1592179779673, "alt_km": 35785.246712416265, "timestamp": "2025-12-26T06:43:29.178236+00:00", "meta": {"OBJECT_NAME": "EUTELSAT 8 WEST B", "OBJECT_ID": "2015-039B", "EPOCH": "2025-12-25T06:10:40.433088", "MEAN_MOTION": 1.00271322, "ECCENTRICITY": 0.000422, "INCLINATION": 0.0645, "RA_OF_ASC_NODE": 9.1951, "ARG_OF_PERICENTER": 265.5835, "MEAN_ANOMALY": 263.9078, "EPHEMERIS_TYPE": 0, "CLASSIFICATION_TYPE": "U", "NORAD_CAT_ID": 40875, "ELEMENT_SET_NO": 999, "REV_AT_EPOCH": 3791, "BSTAR": 0, "MEAN_MOTION_DOT": -4.4e-07, "MEAN_MOTION_DDOT": 0}, "tle": {"line1": "1 40875U 15039B   25359.25741242 -.00000044  00000+0  00000+0 0  9990", "line2": "2 40875   0.0645   9.1951 0004220 265.5835 263.9078  1.00271322 37911"}}, "geometry": {"type": "Point", "coordinates": [-172.1592179779673, 0.002370587777800962]}}, {"type": "Feature", "properties": {"norad_id": 41310, "name": "EUTELSAT 9B", "group": "eutelsat", "lat": 0.007370366781687478, "lon": -155.1638936557196, "alt_km": 35779.885384748486, "timestamp": "2025-12-26T06:43:29.178248+00:00", "meta": {"OBJECT_NAME": "EUTELSAT 9B", "OBJECT_ID": "2016-005A", "EPOCH": "2025-12-25T16:31:52.264704", "MEAN_MOTION": 1.00269837, "ECCENTRICITY": 0.00046711, "INCLINATION": 0.0258, "RA_OF_ASC_NODE": 45.4208, "ARG_OF_PERICENTER": 229.6362, "MEAN_ANOMALY": 76.3538, "EPHEMERIS_TYPE": 0, "CLASSIFICATION_TYPE": "U", "NORAD_CAT_ID": 41310, "ELEMENT_SET_NO": 999, "REV_AT_EPOCH": 3637, "BSTAR": 0, "MEAN_MOTION_DOT": 8.3e-07, "MEAN_MOTION_DDOT": 0}, "tle": {"line1": "1 41310U 16005A   25359.68879936  .00000083  00000+0  00000+0 0  9990", "line2": "2 41310   0.0258  45.4208 0004671 229.6362  76.3538  1.00269837 36374"}}, "geometry": {"type": "Point", "coordinates": [-155.1638936557196, 0.007370366781687478]}}, {"type": "Feature", "properties": {"norad_id": 41382, "name": "EUTELSAT 65 WEST A", "group": "eutelsat", "lat": 0.042846559827881714, "lon": 130.69762505732453, "alt_km": 35794.53150948673, "timestamp": "2025-12-26T06:43:29.178268+00:00", "meta": {"OBJECT_NAME": "EUTELSAT 65 WEST A", "OBJECT_ID": "2016-014A", "EPOCH": "2025-12-25T21:18:58.027968", "MEAN_MOTION": 1.00271466, "ECCENTRICITY": 0.0002336, "INCLINATION": 0.048, "RA_OF_ASC_NODE": 346.0355, "ARG_OF_PERICENTER": 291.9689, "MEAN_ANOMALY": 71.1992, "EPHEMERIS_TYPE": 0, "CLASSIFICATION_TYPE": "U", "NORAD_CAT_ID": 41382, "ELEMENT_SET_NO": 999, "REV_AT_EPOCH": 3579, "BSTAR": 0, "MEAN_MOTION_DOT": -2.55e-06, "MEAN_MOTION_DDOT": 0}, "tle": {"line1": "1 41382U 16014A   25359.88817162 -.00000255  00000+0  00000+0 0  9996", "line2": "2 41382   0.0480 346.0355 0002336 291.9689  71.1992  1.00271466 35796"}}, "geometry": {"type": "Point", "coordinates": [130.69762505732453, 0.042846559827881714]}}, {"type": "Feature", "properties": {"norad_id": 41589, "name": "EUTELSAT 117 WEST B", "group": "eutelsat", "lat": -0.004208796022037268, "lon": 78.92539269059127, "alt_km": 35786.51888356482, "timestamp": "2025-12-26T06:43:29.178291+00:00", "meta": {"OBJECT_NAME": "EUTELSAT 117 WEST B", "OBJECT_ID": "2016-038B", "EPOCH": "2025-12-24T09:59:01.014144", "MEAN_MOTION": 1.00277873, "ECCENTRICITY": 6.384e-05, "INCLINATION": 0.0094, "RA_OF_ASC_NODE": 154.0765, "ARG_OF_PERICENTER": 139.5473, "MEAN_ANOMALY": 192.3072, "EPHEMERIS_TYPE": 0, "CLASSIFICATION_TYPE": "U", "NORAD_CAT_ID": 41589, "ELEMENT_SET_NO": 999, "REV_AT_EPOCH": 3491, "BSTAR": 0, "MEAN_MOTION_DOT": 9e-08, "MEAN_MOTION_DDOT": 0}, "tle": {"line1": "1 41589U 16038B   25358.41598396  .00000009  00000+0  00000+0 0  9990", "line2": "2 41589   0.0094 154.0765 0000638 139.5473 192.3072  1.00277873 34915"}}, "geometry": {"type": "Point", "coordinates": [78.92539269059127, -0.004208796022037268]}}]}